start=new Date('2022-11-26T00:00:00.000Z').valueOf();
sats=[{"CENTER_NAME":"EARTH","OBJECT_ID":"2021-018U","EPHEMERIS_TYPE":"0","SITE":"AFETR","CLASSIFICATION_TYPE":"U","ARG_OF_PERICENTER":"63.1655","EPOCH":"2022-11-25T19:07:17.968800","OBJECT_TYPE":"PAYLOAD","PERIOD":"95.592","MEAN_MOTION_DOT":"0.00002896","LAUNCH_DATE":"2021-03-11","REF_FRAME":"TEME","OBJECT_NAME":"STARLINK-2386","MEAN_MOTION_DDOT":"0.0000000000000","RCS_SIZE":"LARGE","TIME_SYSTEM":"UTC","REV_AT_EPOCH":"9602","GP_ID":"218819567","DECAY_DATE":null,"PERIAPSIS":"546.143","ECCENTRICITY":"0.00015200","MEAN_ANOMALY":"296.9490","NORAD_CAT_ID":"47805","INCLINATION":"53.0536","MEAN_MOTION":"15.06405853","COUNTRY_CODE":"US","ELEMENT_SET_NO":"999","TLE_LINE2":"2 47805  53.0536 218.3988 0001520  63.1655 296.9490 15.06405853 96024","TLE_LINE1":"1 47805U 21018U   22329.79673575  .00002896  00000-0  21317-3 0  9995","MEAN_ELEMENT_THEORY":"SGP4","FILE":"3670141","BSTAR":"0.00021317000000","RA_OF_ASC_NODE":"218.3988","APOAPSIS":"548.248","SEMIMAJOR_AXIS":"6925.331"},{"CENTER_NAME":"EARTH","ARG_OF_PERICENTER":"48.5667","CLASSIFICATION_TYPE":"U","EPHEMERIS_TYPE":"0","SITE":"AFETR","OBJECT_ID":"2021-018V","OBJECT_TYPE":"PAYLOAD","EPOCH":"2022-11-25T17:37:41.687328","MEAN_MOTION_DOT":"0.00001311","LAUNCH_DATE":"2021-03-11","PERIOD":"95.592","MEAN_MOTION_DDOT":"0.0000000000000","OBJECT_NAME":"STARLINK-2387","REF_FRAME":"TEME","RCS_SIZE":"LARGE","REV_AT_EPOCH":"9586","TIME_SYSTEM":"UTC","DECAY_DATE":null,"GP_ID":"218820311","ECCENTRICITY":"0.00021320","PERIAPSIS":"545.743","NORAD_CAT_ID":"47806","INCLINATION":"53.0560","MEAN_ANOMALY":"311.5505","MEAN_MOTION":"15.06398108","TLE_LINE1":"1 47806U 21018V   22329.73451027  .00001311  00000-0  10689-3 0  9997","TLE_LINE2":"2 47806  53.0560 233.4476 0002132  48.5667 311.5505 15.06398108 95868","ELEMENT_SET_NO":"999","COUNTRY_CODE":"US","BSTAR":"0.00010689000000","RA_OF_ASC_NODE":"233.4476","MEAN_ELEMENT_THEORY":"SGP4","FILE":"3670141","SEMIMAJOR_AXIS":"6925.354","APOAPSIS":"548.696"},{"COUNTRY_CODE":"US","TLE_LINE2":"2 47807  53.0523 208.4851 0001956  47.1463 312.9690 15.06401525 96149","TLE_LINE1":"1 47807U 21018W   22329.72391515  .00002223  00000-0  16812-3 0  9999","ELEMENT_SET_NO":"999","MEAN_ELEMENT_THEORY":"SGP4","FILE":"3670141","RA_OF_ASC_NODE":"208.4851","BSTAR":"0.00016812000000","APOAPSIS":"548.563","SEMIMAJOR_AXIS":"6925.344","GP_ID":"218820560","DECAY_DATE":null,"PERIAPSIS":"545.854","ECCENTRICITY":"0.00019560","MEAN_ANOMALY":"312.9690","INCLINATION":"53.0523","NORAD_CAT_ID":"47807","MEAN_MOTION":"15.06401525","PERIOD":"95.592","MEAN_MOTION_DOT":"0.00002223","LAUNCH_DATE":"2021-03-11","REF_FRAME":"TEME","MEAN_MOTION_DDOT":"0.0000000000000","OBJECT_NAME":"STARLINK-2388","RCS_SIZE":"LARGE","TIME_SYSTEM":"UTC","REV_AT_EPOCH":"9614","CENTER_NAME":"EARTH","OBJECT_ID":"2021-018W","SITE":"AFETR","EPHEMERIS_TYPE":"0","CLASSIFICATION_TYPE":"U","ARG_OF_PERICENTER":"47.1463","EPOCH":"2022-11-25T17:22:26.268960","OBJECT_TYPE":"PAYLOAD"},{"ECCENTRICITY":"0.00020350","PERIAPSIS":"545.814","DECAY_DATE":null,"GP_ID":"218761872","MEAN_MOTION":"15.06396719","NORAD_CAT_ID":"47808","INCLINATION":"53.0557","MEAN_ANOMALY":"313.3186","BSTAR":"0.00011236000000","RA_OF_ASC_NODE":"236.0372","FILE":"3669850","MEAN_ELEMENT_THEORY":"SGP4","ELEMENT_SET_NO":"999","TLE_LINE2":"2 47808  53.0557 236.0372 0002035  46.7973 313.3186 15.06396719 95773","TLE_LINE1":"1 47808U 21018X   22329.15581768  .00001392  00000-0  11236-3 0  9999","COUNTRY_CODE":"US","SEMIMAJOR_AXIS":"6925.359","APOAPSIS":"548.633","CENTER_NAME":"EARTH","OBJECT_TYPE":"PAYLOAD","EPOCH":"2022-11-25T03:44:22.647552","ARG_OF_PERICENTER":"46.7973","CLASSIFICATION_TYPE":"U","SITE":"AFETR","EPHEMERIS_TYPE":"0","OBJECT_ID":"2021-018X","MEAN_MOTION_DDOT":"0.0000000000000","OBJECT_NAME":"STARLINK-2389","REF_FRAME":"TEME","LAUNCH_DATE":"2021-03-11","MEAN_MOTION_DOT":"0.00001392","PERIOD":"95.592","REV_AT_EPOCH":"9577","TIME_SYSTEM":"UTC","RCS_SIZE":"LARGE"},{"MEAN_MOTION":"15.06405662","INCLINATION":"53.0544","NORAD_CAT_ID":"47809","MEAN_ANOMALY":"306.7183","ECCENTRICITY":"0.00023630","PERIAPSIS":"545.560","GP_ID":"218819068","DECAY_DATE":null,"SEMIMAJOR_AXIS":"6925.331","APOAPSIS":"548.833","BSTAR":"0.00015168000000","RA_OF_ASC_NODE":"238.3239","MEAN_ELEMENT_THEORY":"SGP4","FILE":"3670141","TLE_LINE2":"2 47809  53.0544 238.3239 0002363  53.4023 306.7183 15.06405662 95795","TLE_LINE1":"1 47809U 21018Y   22329.75705960  .00001978  00000-0  15168-3 0  9996","ELEMENT_SET_NO":"999","COUNTRY_CODE":"US","EPOCH":"2022-11-25T18:10:09.949440","OBJECT_TYPE":"PAYLOAD","CLASSIFICATION_TYPE":"U","ARG_OF_PERICENTER":"53.4023","OBJECT_ID":"2021-018Y","EPHEMERIS_TYPE":"0","SITE":"AFETR","CENTER_NAME":"EARTH","REV_AT_EPOCH":"9579","TIME_SYSTEM":"UTC","RCS_SIZE":"LARGE","MEAN_MOTION_DDOT":"0.0000000000000","OBJECT_NAME":"STARLINK-2390","REF_FRAME":"TEME","LAUNCH_DATE":"2021-03-11","MEAN_MOTION_DOT":"0.00001978","PERIOD":"95.592"},{"RCS_SIZE":"LARGE","REV_AT_EPOCH":"9561","TIME_SYSTEM":"UTC","LAUNCH_DATE":"2021-03-11","MEAN_MOTION_DOT":"0.00001201","PERIOD":"95.592","MEAN_MOTION_DDOT":"0.0000000000000","OBJECT_NAME":"STARLINK-2391","REF_FRAME":"TEME","ARG_OF_PERICENTER":"58.5704","CLASSIFICATION_TYPE":"U","EPHEMERIS_TYPE":"0","SITE":"AFETR","OBJECT_ID":"2021-018Z","OBJECT_TYPE":"PAYLOAD","EPOCH":"2022-11-25T12:25:11.982720","CENTER_NAME":"EARTH","SEMIMAJOR_AXIS":"6925.359","APOAPSIS":"548.379","TLE_LINE1":"1 47810U 21018Z   22329.51749980  .00001201  00000-0  99536-4 0  9993","TLE_LINE2":"2 47810  53.0546 249.4040 0001668  58.5704 301.5448 15.06396754 95610","ELEMENT_SET_NO":"999","COUNTRY_CODE":"US","BSTAR":"0.00009953600000","RA_OF_ASC_NODE":"249.4040","MEAN_ELEMENT_THEORY":"SGP4","FILE":"3669850","NORAD_CAT_ID":"47810","INCLINATION":"53.0546","MEAN_ANOMALY":"301.5448","MEAN_MOTION":"15.06396754","DECAY_DATE":null,"GP_ID":"218760371","ECCENTRICITY":"0.00016680","PERIAPSIS":"546.068"},{"LAUNCH_DATE":"2021-03-11","MEAN_MOTION_DOT":"0.00001830","PERIOD":"95.592","OBJECT_NAME":"STARLINK-2392","MEAN_MOTION_DDOT":"0.0000000000000","REF_FRAME":"TEME","RCS_SIZE":"LARGE","REV_AT_EPOCH":"9562","TIME_SYSTEM":"UTC","CENTER_NAME":"EARTH","CLASSIFICATION_TYPE":"U","ARG_OF_PERICENTER":"77.8467","OBJECT_ID":"2021-018AA","SITE":"AFETR","EPHEMERIS_TYPE":"0","EPOCH":"2022-11-25T10:11:11.233248","OBJECT_TYPE":"PAYLOAD","ELEMENT_SET_NO":"999","TLE_LINE2":"2 47811  53.0557 219.8308 0001591  77.8467 282.2701 15.06395817 95623","TLE_LINE1":"1 47811U 21018AA  22329.42443557  .00001830  00000-0  14176-3 0  9999","COUNTRY_CODE":"US","BSTAR":"0.00014176000000","RA_OF_ASC_NODE":"219.8308","FILE":"3669983","MEAN_ELEMENT_THEORY":"SGP4","SEMIMAJOR_AXIS":"6925.361","APOAPSIS":"548.328","GP_ID":"218794290","DECAY_DATE":null,"ECCENTRICITY":"0.00015910","PERIAPSIS":"546.125","NORAD_CAT_ID":"47811","INCLINATION":"53.0557","MEAN_ANOMALY":"282.2701","MEAN_MOTION":"15.06395817"},{"MEAN_ANOMALY":"315.7014","NORAD_CAT_ID":"47812","INCLINATION":"53.0542","MEAN_MOTION":"15.06399479","DECAY_DATE":null,"GP_ID":"218761373","PERIAPSIS":"545.852","ECCENTRICITY":"0.00019690","APOAPSIS":"548.579","SEMIMAJOR_AXIS":"6925.350","COUNTRY_CODE":"US","TLE_LINE2":"2 47812  53.0542 250.8359 0001969  44.4133 315.7014 15.06399479 95502","ELEMENT_SET_NO":"999","TLE_LINE1":"1 47812U 21018AB  22329.19681567  .00001424  00000-0  11451-3 0  9991","FILE":"3669850","MEAN_ELEMENT_THEORY":"SGP4","BSTAR":"0.00011451000000","RA_OF_ASC_NODE":"250.8359","EPHEMERIS_TYPE":"0","SITE":"AFETR","OBJECT_ID":"2021-018AB","ARG_OF_PERICENTER":"44.4133","CLASSIFICATION_TYPE":"U","OBJECT_TYPE":"PAYLOAD","EPOCH":"2022-11-25T04:43:24.873888","CENTER_NAME":"EARTH","RCS_SIZE":"LARGE","TIME_SYSTEM":"UTC","REV_AT_EPOCH":"9550","PERIOD":"95.592","MEAN_MOTION_DOT":"0.00001424","LAUNCH_DATE":"2021-03-11","REF_FRAME":"TEME","MEAN_MOTION_DDOT":"0.0000000000000","OBJECT_NAME":"STARLINK-2393"},{"MEAN_MOTION":"15.06391048","NORAD_CAT_ID":"47813","INCLINATION":"53.0546","MEAN_ANOMALY":"290.6864","ECCENTRICITY":"0.00015040","PERIAPSIS":"546.199","GP_ID":"218760121","DECAY_DATE":null,"SEMIMAJOR_AXIS":"6925.376","APOAPSIS":"548.283","BSTAR":"0.00012157000000","RA_OF_ASC_NODE":"221.2232","MEAN_ELEMENT_THEORY":"SGP4","FILE":"3669850","TLE_LINE1":"1 47813U 21018AC  22329.11481191  .00001529  00000-0  12157-3 0  9995","TLE_LINE2":"2 47813  53.0546 221.2232 0001504  69.4286 290.6864 15.06391048 95979","ELEMENT_SET_NO":"999","COUNTRY_CODE":"US","EPOCH":"2022-11-25T02:45:19.749024","OBJECT_TYPE":"PAYLOAD","CLASSIFICATION_TYPE":"U","ARG_OF_PERICENTER":"69.4286","OBJECT_ID":"2021-018AC","SITE":"AFETR","EPHEMERIS_TYPE":"0","CENTER_NAME":"EARTH","REV_AT_EPOCH":"9597","TIME_SYSTEM":"UTC","RCS_SIZE":"LARGE","OBJECT_NAME":"STARLINK-2394","MEAN_MOTION_DDOT":"0.0000000000000","REF_FRAME":"TEME","LAUNCH_DATE":"2021-03-11","MEAN_MOTION_DOT":"0.00001529","PERIOD":"95.593"},{"SEMIMAJOR_AXIS":"6925.376","APOAPSIS":"548.680","BSTAR":"0.00012248000000","RA_OF_ASC_NODE":"241.1028","FILE":"3669850","MEAN_ELEMENT_THEORY":"SGP4","TLE_LINE2":"2 47814  53.0548 241.1028 0002078  48.3911 311.7256 15.06390932 95706","ELEMENT_SET_NO":"999","TLE_LINE1":"1 47814U 21018AD  22329.13877328  .00001543  00000-0  12248-3 0  9996","COUNTRY_CODE":"US","MEAN_MOTION":"15.06390932","INCLINATION":"53.0548","NORAD_CAT_ID":"47814","MEAN_ANOMALY":"311.7256","ECCENTRICITY":"0.00020780","PERIAPSIS":"545.802","GP_ID":"218760871","DECAY_DATE":null,"REV_AT_EPOCH":"9570","TIME_SYSTEM":"UTC","RCS_SIZE":"LARGE","OBJECT_NAME":"STARLINK-2395","MEAN_MOTION_DDOT":"0.0000000000000","REF_FRAME":"TEME","MEAN_MOTION_DOT":"0.00001543","LAUNCH_DATE":"2021-03-11","PERIOD":"95.593","EPOCH":"2022-11-25T03:19:50.011392","OBJECT_TYPE":"PAYLOAD","CLASSIFICATION_TYPE":"U","ARG_OF_PERICENTER":"48.3911","OBJECT_ID":"2021-018AD","SITE":"AFETR","EPHEMERIS_TYPE":"0","CENTER_NAME":"EARTH"}];
